{"type": "FeatureCollection", "metadata": {"fetched": "2026-08-31T09:15:13+00:00", "source": "https://nces.ed.gov/opengis/rest/services/K12_School_Locations/EDGE_GEOCODE_PUBLICSCH_2324/MapServer/0/query", "count": 18}, "features": [{"type": "Feature", "id": 50600, "geometry": {"type": "Point", "coordinates": [-94.53563724311498, 37.07052663388733]}, "properties": {"OBJECTID": 50600, "NCESSCH": "290000902211", "LEAID": "2900009", "NAME": "GATEWAY SCHOOL", "OPSTFIPS": "29", "STREET": "1823 W 20TH ST", "CITY": "JOPLIN", "STATE": "MO", "ZIP": "64804", "STFIP": "29", "CNTY": "29097", "NMCNTY": "Jasper County", "LOCALE": "13", "LAT": 37.07052, "LON": -94.53563, "CBSA": "27900", "NMCBSA": "Joplin, MO-KS", "CBSATYPE": "1", "CSA": "309", "NMCSA": "Joplin-Miami, MO-OK-KS", "CD": "2907", "SLDL": "29161", "SLDU": "29032", "SCHOOLYEAR": "2023-2024"}}, {"type": "Feature", "id": 50652, "geometry": {"type": "Point", "coordinates": [-94.46598822760787, 37.10068064313002]}, "properties": {"OBJECTID": 50652, "NCESSCH": "290002203067", "LEAID": "2900022", "NAME": "COLLEGE VIEW SCHOOL", "OPSTFIPS": "29", "STREET": "1101 N GOETZ BLVD", "CITY": "JOPLIN", "STATE": "MO", "ZIP": "64801", "STFIP": "29", "CNTY": "29097", "NMCNTY": "Jasper County", "LOCALE": "13", "LAT": 37.100674, "LON": -94.465981, "CBSA": "27900", "NMCBSA": "Joplin, MO-KS", "CBSATYPE": "1", "CSA": "309", "NMCSA": "Joplin-Miami, MO-OK-KS", "CD": "2907", "SLDL": "29163", "SLDU": "29032", "SCHOOLYEAR": "2023-2024"}}, {"type": "Feature", "id": 51598, "geometry": {"type": "Point", "coordinates": [-94.4485302201353, 37.068406638363065]}, "properties": {"OBJECTID": 51598, "NCESSCH": "291635000773", "LEAID": "2916350", "NAME": "SOARING HEIGHTS ELEM.", "OPSTFIPS": "29", "STREET": "4604 EAST 20TH ST", "CITY": "JOPLIN", "STATE": "MO", "ZIP": "64802", "STFIP": "29", "CNTY": "29097", "NMCNTY": "Jasper County", "LOCALE": "23", "LAT": 37.0684, "LON": -94.448523, "CBSA": "27900", "NMCBSA": "Joplin, MO-KS", "CBSATYPE": "1", "CSA": "309", "NMCSA": "Joplin-Miami, MO-OK-KS", "CD": "2907", "SLDL": "29163", "SLDU": "29032", "SCHOOLYEAR": "2023-2024"}}, {"type": "Feature", "id": 51599, "geometry": {"type": "Point", "coordinates": [-94.47926822919725, 37.07745863850398]}, "properties": {"OBJECTID": 51599, "NCESSCH": "291635000775", "LEAID": "2916350", "NAME": "EASTMORLAND ELEM.", "OPSTFIPS": "29", "STREET": "1131 HIGHVIEW", "CITY": "JOPLIN", "STATE": "MO", "ZIP": "64802", "STFIP": "29", "CNTY": "29097", "NMCNTY": "Jasper County", "LOCALE": "13", "LAT": 37.077452, "LON": -94.479261, "CBSA": "27900", "NMCBSA": "Joplin, MO-KS", "CBSATYPE": "1", "CSA": "309", "NMCSA": "Joplin-Miami, MO-OK-KS", "CD": "2907", "SLDL": "29161", "SLDU": "29032", "SCHOOLYEAR": "2023-2024"}}, {"type": "Feature", "id": 51600, "geometry": {"type": "Point", "coordinates": [-94.50849123556887, 37.06618463486307]}, "properties": {"OBJECTID": 51600, "NCESSCH": "291635000777", "LEAID": "2916350", "NAME": "FRANKLIN TECHNOLOGY CTR.", "OPSTFIPS": "29", "STREET": "2104 INDIANA AVE", "CITY": "JOPLIN", "STATE": "MO", "ZIP": "64802", "STFIP": "29", "CNTY": "29097", "NMCNTY": "Jasper County", "LOCALE": "13", "LAT": 37.066178, "LON": -94.508484, "CBSA": "27900", "NMCBSA": "Joplin, MO-KS", "CBSATYPE": "1", "CSA": "309", "NMCSA": "Joplin-Miami, MO-OK-KS", "CD": "2907", "SLDL": "29161", "SLDU": "29032", "SCHOOLYEAR": "2023-2024"}}, {"type": "Feature", "id": 51601, "geometry": {"type": "Point", "coordinates": [-94.54180724677941, 37.09099263760466]}, "properties": {"OBJECTID": 51601, "NCESSCH": "291635000779", "LEAID": "2916350", "NAME": "JEFFERSON ELEM.", "OPSTFIPS": "29", "STREET": "130 MCKINLEY", "CITY": "JOPLIN", "STATE": "MO", "ZIP": "64802", "STFIP": "29", "CNTY": "29097", "NMCNTY": "Jasper County", "LOCALE": "13", "LAT": 37.090986, "LON": -94.5418, "CBSA": "27900", "NMCBSA": "Joplin, MO-KS", "CBSATYPE": "1", "CSA": "309", "NMCSA": "Joplin-Miami, MO-OK-KS", "CD": "2907", "SLDL": "29161", "SLDU": "29032", "SCHOOLYEAR": "2023-2024"}}, {"type": "Feature", "id": 51602, "geometry": {"type": "Point", "coordinates": [-94.50046323322086, 37.05978163384896]}, "properties": {"OBJECTID": 51602, "NCESSCH": "291635000780", "LEAID": "2916350", "NAME": "KELSEY NORMAN ELEM.", "OPSTFIPS": "29", "STREET": "1323 E 28TH ST", "CITY": "JOPLIN", "STATE": "MO", "ZIP": "64802", "STFIP": "29", "CNTY": "29097", "NMCNTY": "Jasper County", "LOCALE": "13", "LAT": 37.059775, "LON": -94.500456, "CBSA": "27900", "NMCBSA": "Joplin, MO-KS", "CBSATYPE": "1", "CSA": "309", "NMCSA": "Joplin-Miami, MO-OK-KS", "CD": "2907", "SLDL": "29161", "SLDU": "29032", "SCHOOLYEAR": "2023-2024"}}, {"type": "Feature", "id": 51603, "geometry": {"type": "Point", "coordinates": [-94.49126723231363, 37.08448563851759]}, "properties": {"OBJECTID": 51603, "NCESSCH": "291635000783", "LEAID": "2916350", "NAME": "MCKINLEY ELEM.", "OPSTFIPS": "29", "STREET": "610 S FOREST", "CITY": "JOPLIN", "STATE": "MO", "ZIP": "64802", "STFIP": "29", "CNTY": "29097", "NMCNTY": "Jasper County", "LOCALE": "13", "LAT": 37.084479, "LON": -94.49126, "CBSA": "27900", "NMCBSA": "Joplin, MO-KS", "CBSATYPE": "1", "CSA": "309", "NMCSA": "Joplin-Miami, MO-OK-KS", "CD": "2907", "SLDL": "29161", "SLDU": "29032", "SCHOOLYEAR": "2023-2024"}}, {"type": "Feature", "id": 51604, "geometry": {"type": "Point", "coordinates": [-94.50854723565793, 37.06849563482416]}, "properties": {"OBJECTID": 51604, "NCESSCH": "291635000787", "LEAID": "2916350", "NAME": "JOPLIN HIGH", "OPSTFIPS": "29", "STREET": "2104 INDIANA AVE", "CITY": "JOPLIN", "STATE": "MO", "ZIP": "64802", "STFIP": "29", "CNTY": "29097", "NMCNTY": "Jasper County", "LOCALE": "13", "LAT": 37.068489, "LON": -94.50854, "CBSA": "27900", "NMCBSA": "Joplin, MO-KS", "CBSATYPE": "1", "CSA": "309", "NMCSA": "Joplin-Miami, MO-OK-KS", "CD": "2907", "SLDL": "29161", "SLDU": "29032", "SCHOOLYEAR": "2023-2024"}}, {"type": "Feature", "id": 51605, "geometry": {"type": "Point", "coordinates": [-94.48907923337076, 37.106543642631316]}, "properties": {"OBJECTID": 51605, "NCESSCH": "291635000788", "LEAID": "2916350", "NAME": "ROYAL HEIGHTS ELEM.", "OPSTFIPS": "29", "STREET": "2100 ROLLA ST", "CITY": "JOPLIN", "STATE": "MO", "ZIP": "64802", "STFIP": "29", "CNTY": "29097", "NMCNTY": "Jasper County", "LOCALE": "13", "LAT": 37.106537, "LON": -94.489072, "CBSA": "27900", "NMCBSA": "Joplin, MO-KS", "CBSATYPE": "1", "CSA": "309", "NMCSA": "Joplin-Miami, MO-OK-KS", "CD": "2907", "SLDL": "29161", "SLDU": "29032", "SCHOOLYEAR": "2023-2024"}}, {"type": "Feature", "id": 51606, "geometry": {"type": "Point", "coordinates": [-94.51355923506195, 37.04497363023537]}, "properties": {"OBJECTID": 51606, "NCESSCH": "291635000791", "LEAID": "2916350", "NAME": "STAPLETON ELEM.", "OPSTFIPS": "29", "STREET": "101 E 41ST ST", "CITY": "JOPLIN", "STATE": "MO", "ZIP": "64802", "STFIP": "29", "CNTY": "29145", "NMCNTY": "Newton County", "LOCALE": "13", "LAT": 37.044967, "LON": -94.513552, "CBSA": "27900", "NMCBSA": "Joplin, MO-KS", "CBSATYPE": "1", "CSA": "309", "NMCSA": "Joplin-Miami, MO-OK-KS", "CD": "2907", "SLDL": "29160", "SLDU": "29032", "SCHOOLYEAR": "2023-2024"}}, {"type": "Feature", "id": 51607, "geometry": {"type": "Point", "coordinates": [-94.50497523160823, 37.032461628831335]}, "properties": {"OBJECTID": 51607, "NCESSCH": "291635002429", "LEAID": "2916350", "NAME": "SOUTH MIDDLE", "OPSTFIPS": "29", "STREET": "900 E 50TH ST", "CITY": "JOPLIN", "STATE": "MO", "ZIP": "64802", "STFIP": "29", "CNTY": "29145", "NMCNTY": "Newton County", "LOCALE": "41", "LAT": 37.032455, "LON": -94.504968, "CBSA": "27900", "NMCBSA": "Joplin, MO-KS", "CBSATYPE": "1", "CSA": "309", "NMCSA": "Joplin-Miami, MO-OK-KS", "CD": "2907", "SLDL": "29160", "SLDU": "29032", "SCHOOLYEAR": "2023-2024"}}, {"type": "Feature", "id": 51608, "geometry": {"type": "Point", "coordinates": [-94.52447524150882, 37.09097663777905]}, "properties": {"OBJECTID": 51608, "NCESSCH": "291635002430", "LEAID": "2916350", "NAME": "NORTH MIDDLE", "OPSTFIPS": "29", "STREET": "102 GRAY", "CITY": "JOPLIN", "STATE": "MO", "ZIP": "64802", "STFIP": "29", "CNTY": "29097", "NMCNTY": "Jasper County", "LOCALE": "13", "LAT": 37.09097, "LON": -94.524468, "CBSA": "27900", "NMCBSA": "Joplin, MO-KS", "CBSATYPE": "1", "CSA": "309", "NMCSA": "Joplin-Miami, MO-OK-KS", "CD": "2907", "SLDL": "29161", "SLDU": "29032", "SCHOOLYEAR": "2023-2024"}}, {"type": "Feature", "id": 51609, "geometry": {"type": "Point", "coordinates": [-94.44979922052173, 37.06822563801107]}, "properties": {"OBJECTID": 51609, "NCESSCH": "291635002431", "LEAID": "2916350", "NAME": "EAST MIDDLE", "OPSTFIPS": "29", "STREET": "4594 EAST 20TH ST", "CITY": "JOPLIN", "STATE": "MO", "ZIP": "64802", "STFIP": "29", "CNTY": "29097", "NMCNTY": "Jasper County", "LOCALE": "23", "LAT": 37.068219, "LON": -94.449792, "CBSA": "27900", "NMCBSA": "Joplin, MO-KS", "CBSATYPE": "1", "CSA": "309", "NMCSA": "Joplin-Miami, MO-OK-KS", "CD": "2907", "SLDL": "29163", "SLDU": "29032", "SCHOOLYEAR": "2023-2024"}}, {"type": "Feature", "id": 51610, "geometry": {"type": "Point", "coordinates": [-94.54247224495593, 37.06557263261904]}, "properties": {"OBJECTID": 51610, "NCESSCH": "291635002432", "LEAID": "2916350", "NAME": "CECIL FLOYD ELEM.", "OPSTFIPS": "29", "STREET": "2201 W 24TH ST", "CITY": "JOPLIN", "STATE": "MO", "ZIP": "64802", "STFIP": "29", "CNTY": "29097", "NMCNTY": "Jasper County", "LOCALE": "13", "LAT": 37.065566, "LON": -94.542465, "CBSA": "27900", "NMCBSA": "Joplin, MO-KS", "CBSATYPE": "1", "CSA": "309", "NMCSA": "Joplin-Miami, MO-OK-KS", "CD": "2907", "SLDL": "29161", "SLDU": "29032", "SCHOOLYEAR": "2023-2024"}}, {"type": "Feature", "id": 51611, "geometry": {"type": "Point", "coordinates": [-94.53161524091325, 37.05932563178189]}, "properties": {"OBJECTID": 51611, "NCESSCH": "291635002778", "LEAID": "2916350", "NAME": "JOPLIN EARLY CHILDHOOD CTR.", "OPSTFIPS": "29", "STREET": "2825 S MCCLELLAND BLVD", "CITY": "JOPLIN", "STATE": "MO", "ZIP": "64802", "STFIP": "29", "CNTY": "29097", "NMCNTY": "Jasper County", "LOCALE": "13", "LAT": 37.059319, "LON": -94.531608, "CBSA": "27900", "NMCBSA": "Joplin, MO-KS", "CBSATYPE": "1", "CSA": "309", "NMCSA": "Joplin-Miami, MO-OK-KS", "CD": "2907", "SLDL": "29161", "SLDU": "29032", "SCHOOLYEAR": "2023-2024"}}, {"type": "Feature", "id": 51612, "geometry": {"type": "Point", "coordinates": [-94.53125224103331, 37.05772963166167]}, "properties": {"OBJECTID": 51612, "NCESSCH": "291635003240", "LEAID": "2916350", "NAME": "IRVING ELEMENTARY", "OPSTFIPS": "29", "STREET": "2901 MCCLELLAND BLVD", "CITY": "JOPLIN", "STATE": "MO", "ZIP": "64802", "STFIP": "29", "CNTY": "29097", "NMCNTY": "Jasper County", "LOCALE": "13", "LAT": 37.057723, "LON": -94.531245, "CBSA": "27900", "NMCBSA": "Joplin, MO-KS", "CBSATYPE": "1", "CSA": "309", "NMCSA": "Joplin-Miami, MO-OK-KS", "CD": "2907", "SLDL": "29161", "SLDU": "29032", "SCHOOLYEAR": "2023-2024"}}, {"type": "Feature", "id": 51613, "geometry": {"type": "Point", "coordinates": [-94.5139972404186, 37.10373964101253]}, "properties": {"OBJECTID": 51613, "NCESSCH": "291635003410", "LEAID": "2916350", "NAME": "Dover Hill Elementary", "OPSTFIPS": "29", "STREET": "110 N MAIN STREET", "CITY": "JOPLIN", "STATE": "MO", "ZIP": "64802", "STFIP": "29", "CNTY": "29097", "NMCNTY": "Jasper County", "LOCALE": "13", "LAT": 37.103733, "LON": -94.51399, "CBSA": "27900", "NMCBSA": "Joplin, MO-KS", "CBSATYPE": "1", "CSA": "309", "NMCSA": "Joplin-Miami, MO-OK-KS", "CD": "2907", "SLDL": "29161", "SLDU": "29032", "SCHOOLYEAR": "2023-2024"}}]}